STARLINK-30187          
1 57473U 23107S   24165.33683603 -.00000762  00000+0 -41383-4 0  9998
2 57473  43.0016 185.5632 0001102 265.0151  95.0566 15.02532034 49690
STARLINK-30110          
1 57474U 23107T   24165.33017443 -.00000725  00000+0 -38616-4 0  9996
2 57474  43.0000 185.5077 0001099 273.6670  86.4047 15.02535599 49690
STARLINK-30155          
1 57475U 23107U   24165.32684950  .00000470  00000+0  49823-4 0  9996
2 57475  43.0013 185.4971 0001136 271.9772  88.0941 15.02545461 49693
STARLINK-30161          
1 57476U 23107V   24165.32351367  .00000472  00000+0  49975-4 0  9990
2 57476  43.0016 185.4729 0001351 269.5632  90.5056 15.02537307 49690
STARLINK-30176          
1 57477U 23107W   24165.52073396  .00000115  00000+0  23584-4 0  9998
2 57477  43.0015 184.3715 0001599 290.6127  69.4544 15.02532816 49722
STARLINK-30154          
1 57495U 23113A   24165.47566495  .00001215  00000+0  10497-3 0  9996
2 57495  43.0027 223.8377 0001203 278.8481  81.2225 15.02542631 48094
STARLINK-30145          
1 57496U 23113B   24165.45902334  .00000535  00000+0  54654-4 0  9999
2 57496  43.0027 223.7260 0001274 264.9680  95.1017 15.02536426 48144
STARLINK-30226          
1 57497U 23113C   24165.45569038  .00001097  00000+0  96275-4 0  9999
2 57497  43.0021 223.7084 0001415 272.4752  87.5929 15.02541769 48158
STARLINK-30203          
1 57498U 23113D   24165.44570363  .00005141  00000+0  39534-3 0  9990
2 57498  43.0016 223.6250 0001483 271.6063  88.4610 15.02534943 48274
STARLINK-30169          
1 57499U 23113E   24165.47596771 -.00000058  00000+0  10790-4 0  9992
2 57499  43.0031 211.1328 0001572 268.2775  91.7887 15.02533888 48248
STARLINK-30164          
1 57500U 23113F   24165.43571533  .00000449  00000+0  48329-4 0  9992
2 57500  43.0039 223.5476 0001312 271.2132  88.8560 15.02534964 48255
STARLINK-30072          
1 57501U 23113G   24165.42905089  .00002076  00000+0  16863-3 0  9994
2 57501  43.0023 223.4919 0001409 274.5441  85.5240 15.02547638 48145
STARLINK-30228          
1 57502U 23113H   24165.59530540  .00003153  00000+0  24839-3 0  9998
2 57502  43.0024 223.0162 0001310 270.5303  89.5389 15.02530549 48160
STARLINK-30230          
1 57503U 23113J   24165.43904538 -.00000371  00000+0 -12364-4 0  9996
2 57503  43.0023 223.5695 0001317 275.1215  84.9477 15.02535355 48141
STARLINK-30213          
1 57504U 23113K   24165.42583954  .00002194  00000+0  17741-3 0  9997
2 57504  43.0019 224.3177 0001566 282.0172  78.0495 15.02535264 48240
STARLINK-30227          
1 57505U 23113L   24165.39945808  .00001388  00000+0  11780-3 0  9995
2 57505  43.0012 211.1203 0001700 273.7521  86.3127 15.02537948 48394
STARLINK-30212          
1 57506U 23113M   24165.22307548  .00000791  00000+0  73615-4 0  9994
2 57506  43.0037 225.3801 0001273 266.7628  93.3069 15.02536294 48057
STARLINK-30219          
1 57507U 23113N   24165.21974723  .00000579  00000+0  57918-4 0  9991
2 57507  43.0036 225.3663 0001476 270.3326  89.7347 15.02537450 48215
STARLINK-30074          
1 57508U 23113P   24165.23294936  .00000327  00000+0  39314-4 0  9996
2 57508  43.0026 224.6013 0001396 267.9660  92.1022 15.02533890 48010
STARLINK-30082          
1 57509U 23113Q   24165.47234101  .00001031  00000+0  91362-4 0  9995
2 57509  43.0024 223.8257 0001207 262.7346  97.3359 15.02536099 48255
STARLINK-30153          
1 57510U 23113R   24165.46901215  .00000271  00000+0  35150-4 0  9991
2 57510  43.0025 223.8107 0001165 262.0896  97.9814 15.02537111 48144
STARLINK-30147          
1 57511U 23113S   24165.21308352 -.00006009  00000+0 -43027-3 0  9996
2 57511  43.0020 225.3198 0001360 276.0387  84.0301 15.02526193 48218
STARLINK-30157          
1 57512U 23113T   24165.55590742  .00000778  00000+0  72691-4 0  9995
2 57512  43.0039 197.0378 0001329 268.6005  91.4685 15.02535524 48577
STARLINK-30168          
1 57513U 23113U   24165.21641305  .00000968  00000+0  86684-4 0  9999
2 57513  43.0032 225.3149 0001518 279.1591  80.9080 15.02538279 48054
STARLINK-30231          
1 57514U 23113V   24165.46567807  .00001788  00000+0  14736-3 0  9990
2 57514  43.0032 223.7650 0001300 274.0000  86.0694 15.02538983 48254
STARLINK-30081          
1 57515U 23113W   24165.45238205 -.00001511  00000+0 -96772-4 0  9994
2 57515  43.0019 223.6839 0002118 281.4343  78.6262 15.02528230 48250
STARLINK-30149          
1 57516U 23113X   24165.44237137  .00001265  00000+0  10872-3 0  9997
2 57516  43.0036 223.6032 0001425 275.0023  85.0657 15.02537128 48154
STARLINK-30259          
1 57521U 23115A   24165.44273247  .00006258  00000+0  47779-3 0  9990
2 57521  43.0030 211.3527 0001493 271.6666  88.4005 15.02547123 48124
STARLINK-30256          
1 57522U 23115B   24165.43940279  .00000760  00000+0  71289-4 0  9992
2 57522  43.0030 211.3285 0001001 277.1485  82.9243 15.02535205 46906
STARLINK-30261          
1 57523U 23115C   24165.43607304  .00002253  00000+0  18185-3 0  9996
2 57523  43.0032 211.3016 0001211 268.7977  91.2726 15.02526168 46903
STARLINK-30260          
1 57524U 23115D   24165.43275755  .00002584  00000+0  20628-3 0  9990
2 57524  43.0028 211.3001 0001415 282.5055  77.5629 15.02532594 46909
STARLINK-30253          
1 57525U 23115E   24165.48923285  .00001583  00000+0  13221-3 0  9993
2 57525  43.0027 210.8473 0001511 290.4050  69.6630 15.02536537 46912
STARLINK-30257          
1 57526U 23115F   24165.49256446  .00000863  00000+0  78921-4 0  9992
2 57526  43.0014 210.8969 0001282 272.9811  87.0885 15.02537722 46917
STARLINK-30250          
1 57527U 23115G   24165.48590869  .00001301  00000+0  11140-3 0  9999
2 57527  43.0008 210.8207 0001216 274.4282  85.6421 15.02528915 47816
STARLINK-30269          
1 57528U 23115H   24165.40611097 -.00000136  00000+0  50336-5 0  9997
2 57528  43.0021 211.1087 0001254 275.6161  84.4538 15.02537887 46906
STARLINK-30266          
1 57529U 23115J   24165.39611803  .00000941  00000+0  84735-4 0  9993
2 57529  43.0034 211.0140 0001382 269.6805  90.3879 15.02536529 46906
STARLINK-30270          
1 57530U 23115K   24165.40277530  .00000905  00000+0  82041-4 0  9990
2 57530  43.0031 211.0744 0001247 272.7028  87.3671 15.02538823 46902
STARLINK-30268          
1 57531U 23115L   24165.48258605  .00000605  00000+0  59852-4 0  9992
2 57531  43.0025 210.8146 0001462 281.2554  78.8124 15.02526542 46911
STARLINK-30251          
1 57532U 23115M   24165.41275595 -.00000482  00000+0 -20630-4 0  9990
2 57532  43.0021 211.1422 0000599 237.0108 123.0677 15.02543961 46902
STARLINK-30254          
1 57533U 23115N   24165.17351618 -.00005448  00000+0 -19841-3 0  9993
2 57533  43.0002  83.6021 0001166 247.6061 112.4666 15.25936409 48354
STARLINK-30264          
1 57534U 23115P   24165.45840510  .00008810  00000+0  34571-3 0  9990
2 57534  43.0007 184.3185 0001569 277.8658  82.2015 15.25959175 48430
STARLINK-30262          
1 57535U 23115Q   24165.48651454  .00001163  00000+0  35104-4 0  9999
2 57535  43.0015 203.1235 0001410 263.8252  96.2444 15.40695531 47009
STARLINK-30166          
1 57602U 23119A   24165.63714848 -.00003200  00000+0 -22196-3 0  9994
2 57602  43.0023 287.2493 0001502 273.3070  86.7601 15.02526165 47641
STARLINK-30223          
1 57603U 23119B   24165.61718530 -.00003026  00000+0 -20910-3 0  9993
2 57603  43.0022 287.0831 0001752 272.4773  87.5868 15.02519227 47692
STARLINK-30218          
1 57604U 23119C   24165.62383277 -.00000726  00000+0 -38681-4 0  9990
2 57604  43.0034 287.1473 0001448 264.8800  95.1877 15.02540477 47705
STARLINK-30138          
1 57605U 23119D   24165.62051069 -.00000468  00000+0 -19556-4 0  9995
2 57605  43.0051 287.1258 0001829 274.4529  85.6104 15.02531592 47709
STARLINK-30255          
1 57606U 23119E   24165.39331614  .00001190  00000+0  10313-3 0  9999
2 57606  43.0028 287.9998 0001349 266.9296  93.1392 15.02543275 47677
STARLINK-30252          
1 57607U 23119F   24165.36488366  .00001069  00000+0  94214-4 0  9992
2 57607  43.0034 275.8998 0001116 265.8379  94.2336 15.02528290 47819
STARLINK-30258          
1 57608U 23119G   24165.61162191  .00001800  00000+0  14831-3 0  9995
2 57608  43.0049 287.0492 0001639 266.1035  93.9620 15.02536142 47708
STARLINK-30174          
1 57609U 23119H   24165.60385403  .00001547  00000+0  12956-3 0  9992
2 57609  43.0022 286.9968 0001236 263.4162  96.6540 15.02540354 47701
STARLINK-30248          
1 57610U 23119J   24165.40775315  .00002932  00000+0  23202-3 0  9992
2 57610  43.0032 288.1074 0001597 281.2565  78.8097 15.02536905 47673
STARLINK-30052          
1 57611U 23119K   24165.60052889  .00001417  00000+0  11991-3 0  9998
2 57611  43.0034 286.9712 0001211 266.0895  93.9809 15.02537817 47684
STARLINK-30245          
1 57612U 23119L   24165.39776097  .00001250  00000+0  10762-3 0  9999
2 57612  43.0028 288.0334 0001242 276.3507  83.7194 15.02534377 47670
STARLINK-30041          
1 57613U 23119M   24165.39443778  .00000804  00000+0  74530-4 0  9995
2 57613  43.0036 288.0060 0001076 273.3036  86.7683 15.02551498 47674
STARLINK-30244          
1 57614U 23119N   24165.39110534  .00011045  00000+0  83052-3 0  9994
2 57614  43.0053 287.9818 0003109 281.9872  78.0622 15.02576438 47673
STARLINK-30246          
1 57615U 23119P   24165.38777152  .00001345  00000+0  11462-3 0  9997
2 57615  43.0040 287.9328 0001731 273.0230  87.0414 15.02536370 47675
STARLINK-30075          
1 57616U 23119Q   24165.38456348 -.00005959  00000+0 -42608-3 0  9992
2 57616  43.0038 288.7899 0001824 279.8148  80.2489 15.02567162 47669
STARLINK-30148          
1 57617U 23119R   24165.44772724 -.00003824  00000+0 -26834-3 0  9991
2 57617  43.0014 288.4056 0000798 273.5236  86.5515 15.02515211 47672
STARLINK-30249          
1 57618U 23119S   24165.44438553  .00000370  00000+0  42493-4 0  9992
2 57618  43.0031 288.3820 0001115 267.7489  92.3226 15.02533216 47678
